{
"type": "FeatureCollection",
"name": "flood_extent_2026-07",
"crs": { "type": "name", "properties": { "name": "urn:ogc:def:crs:OGC:1.3:CRS84" } },
"features": [
{ "type": "Feature", "properties": { "month": "2026-07" }, "geometry": { "type": "MultiPolygon", "coordinates": [ [ [ [ 29.167693072315412, -3.341807201017731 ], [ 29.169492164797138, -3.341803209842365 ], [ 29.169494151539482, -3.342707257514375 ], [ 29.168594604746524, -3.34270925405631 ], [ 29.168598578207426, -3.34451735042906 ], [ 29.167699029229194, -3.344519347226421 ], [ 29.167701015947078, -3.345423395926931 ], [ 29.166801465605996, -3.345425392438116 ], [ 29.166799479710978, -3.344521343196902 ], [ 29.164100827918698, -3.344527326147044 ], [ 29.164098845031404, -3.3436232752672 ], [ 29.16499839534556, -3.343621282317403 ], [ 29.164994429543579, -3.341813181584217 ], [ 29.166793525264474, -3.341809195366104 ], [ 29.166791541528472, -3.340905146053468 ], [ 29.167691087757429, -3.340903152245797 ], [ 29.167693072315412, -3.341807201017731 ] ] ], [ [ [ 30.250218665944182, 0.248940168328194 ], [ 30.250218444965334, 0.248036902246613 ], [ 30.251115672359479, 0.248036680154421 ], [ 30.251115452123408, 0.2471334148802 ], [ 30.252012678653518, 0.247133193535987 ], [ 30.252012459160653, 0.246229929069354 ], [ 30.252909684826744, 0.246229708473565 ], [ 30.252908814653651, 0.242616653829796 ], [ 30.252011589226548, 0.242616871188633 ], [ 30.252010945215144, 0.239907077763342 ], [ 30.251113719161232, 0.239907292635429 ], [ 30.251113082558344, 0.237197496770607 ], [ 30.250215855875851, 0.237197709157279 ], [ 30.250215226677494, 0.234487910853735 ], [ 30.24931799936466, 0.234488120756326 ], [ 30.24931779129566, 0.233584853843856 ], [ 30.24662610471125, 0.233585480781032 ], [ 30.24662631260863, 0.234488750117879 ], [ 30.244831850758882, 0.234489169403727 ], [ 30.244832059343807, 0.235392440354359 ], [ 30.243934827158444, 0.235392650717963 ], [ 30.243935036487688, 0.23629592247447 ], [ 30.243037803442935, 0.236296133587161 ], [ 30.243038013516045, 0.237199406149318 ], [ 30.242140779611898, 0.237199618010651 ], [ 30.242141202046284, 0.239006164744431 ], [ 30.241243967224424, 0.239006378160533 ], [ 30.241244821473362, 0.24261947483776 ], [ 30.242142056530682, 0.242619258195377 ], [ 30.242142488580697, 0.24442580491246 ], [ 30.243039722955761, 0.244425586596785 ], [ 30.243040158330931, 0.246232131694632 ], [ 30.24393739202441, 0.246231911704777 ], [ 30.243937830726498, 0.248038455182901 ], [ 30.244835063739053, 0.248038233517975 ], [ 30.244835284353464, 0.248941504447652 ], [ 30.245732516624788, 0.248941281914227 ], [ 30.245732738102124, 0.249844552035004 ], [ 30.248424430284977, 0.24984388164345 ], [ 30.248424208624755, 0.248940613946387 ], [ 30.250218665944182, 0.248940168328194 ] ] ], [ [ [ 30.147376686839092, 0.885831850631959 ], [ 30.147378214230717, 0.887638561253558 ], [ 30.148275630876963, 0.887637791611582 ], [ 30.148274103051584, 0.885831082556761 ], [ 30.147376686839092, 0.885831850631959 ] ] ], [ [ [ 30.161747614910471, 0.900273018683759 ], [ 30.161749174261505, 0.90207970401932 ], [ 30.162646581926204, 0.902078918289691 ], [ 30.162645022134377, 0.900272234528038 ], [ 30.161747614910471, 0.900273018683759 ] ] ], [ [ [ 30.178948215264487, 1.059243669141914 ], [ 30.178947294217107, 1.058340342447157 ], [ 30.180742161907535, 1.058338488528542 ], [ 30.180740321137055, 1.05653183828623 ], [ 30.181637753285113, 1.056530912519508 ], [ 30.181636833821624, 1.055627588180934 ], [ 30.182534264924488, 1.055626662946039 ], [ 30.182531510481965, 1.052916692269673 ], [ 30.180736649036376, 1.052918537728769 ], [ 30.180735732977922, 1.05201521257426 ], [ 30.173556257805021, 1.052022577716976 ], [ 30.173557171804244, 1.052925909197018 ], [ 30.172659733615774, 1.052926829464115 ], [ 30.172660648142283, 1.053830161727799 ], [ 30.171763208911496, 1.053831082525153 ], [ 30.171765039802683, 1.055637748613293 ], [ 30.170867599271485, 1.055638670729706 ], [ 30.170869432783782, 1.057445338372086 ], [ 30.171766873831785, 1.057444414677178 ], [ 30.171767792023065, 1.058347747700011 ], [ 30.172665232545324, 1.058346822955307 ], [ 30.172666151780039, 1.05925015518259 ], [ 30.174461030988152, 1.059248303331936 ], [ 30.17446195152592, 1.060151633973524 ], [ 30.177154265226452, 1.060148851870716 ], [ 30.177153343911158, 1.059245523600213 ], [ 30.178948215264487, 1.059243669141914 ] ] ], [ [ [ 30.215764980910496, 1.080884478762372 ], [ 30.215765932457021, 1.081787772679264 ], [ 30.216663341072152, 1.081786814359408 ], [ 30.216662389261202, 1.080883521242897 ], [ 30.215764980910496, 1.080884478762372 ] ] ], [ [ [ 30.195129105001865, 1.085422989536935 ], [ 30.195130054417557, 1.086326301770016 ], [ 30.196027482595238, 1.086325345598405 ], [ 30.196026532913987, 1.085422034160592 ], [ 30.195129105001865, 1.085422989536935 ] ] ] ] } }
]
}
