{
"type": "FeatureCollection",
"name": "flood_extent_2026-03",
"crs": { "type": "name", "properties": { "name": "urn:ogc:def:crs:OGC:1.3:CRS84" } },
"features": [
{ "type": "Feature", "properties": { "month": "2026-03" }, "geometry": { "type": "MultiPolygon", "coordinates": [ [ [ [ 29.930832713481792, -2.510383616259101 ], [ 29.931731060877727, -2.510381589794866 ], [ 29.931735092663889, -2.512188633531432 ], [ 29.930836744036839, -2.512190661456169 ], [ 29.930838760405425, -2.513094184033486 ], [ 29.92904205973764, -2.513098239484802 ], [ 29.929040044600846, -2.51219471544765 ], [ 29.928141693792348, -2.512196741514388 ], [ 29.928137666930674, -2.51038969193849 ], [ 29.929036016508046, -2.510387667330916 ], [ 29.929034003552029, -2.509484143251343 ], [ 29.930830699295321, -2.509480093639359 ], [ 29.930832713481792, -2.510383616259101 ] ] ], [ [ [ 29.944269527992756, -2.49318643069097 ], [ 29.943371202453918, -2.493188451885427 ], [ 29.943365177882896, -2.490477913911755 ], [ 29.944263501589496, -2.490475894917356 ], [ 29.944269527992756, -2.49318643069097 ] ] ], [ [ [ 29.963944189597843, -2.453387983984561 ], [ 29.962147623376541, -2.453391987845414 ], [ 29.96214165735503, -2.450681494371489 ], [ 29.963938219970814, -2.450677494939264 ], [ 29.963944189597843, -2.453387983984561 ] ] ], [ [ [ 30.78532069046129, -1.58286959487974 ], [ 30.785322330405023, -1.583772332283018 ], [ 30.786219371338674, -1.5837706812605 ], [ 30.786222654808142, -1.585576154155218 ], [ 30.787119695578767, -1.585574500860264 ], [ 30.787122983568214, -1.587379971833066 ], [ 30.786225942023322, -1.587381627011528 ], [ 30.786227587035555, -1.588284363425266 ], [ 30.785330544166762, -1.588286019155442 ], [ 30.78533218972774, -1.589188756501096 ], [ 30.78264105434188, -1.589193724174634 ], [ 30.782639409943979, -1.588290984005708 ], [ 30.780845315783999, -1.588294291955647 ], [ 30.780842031344338, -1.586488807826817 ], [ 30.779944983636312, -1.586490459336305 ], [ 30.779940065150562, -1.583782230250453 ], [ 30.780837111698123, -1.583780581561566 ], [ 30.780835473686263, -1.582877839453968 ], [ 30.781732518912346, -1.582876191316558 ], [ 30.781730881449416, -1.581973450139799 ], [ 30.783524968323107, -1.581970154580326 ], [ 30.78352660655834, -1.58287289387558 ], [ 30.78532069046129, -1.58286959487974 ] ] ], [ [ [ 30.249321437686003, 0.24894039116792 ], [ 30.249321216767893, 0.248037124277768 ], [ 30.250218444965334, 0.248036902246613 ], [ 30.250218224789776, 0.247133636163599 ], [ 30.251115452123408, 0.2471334148802 ], [ 30.251113932969211, 0.240810557920936 ], [ 30.250216706053035, 0.24081077354278 ], [ 30.250215645339779, 0.236294443057462 ], [ 30.249318417911866, 0.236294654577194 ], [ 30.24931820823673, 0.23539138766744 ], [ 30.245729290727198, 0.235392229932828 ], [ 30.245729500171741, 0.236295500074639 ], [ 30.244832268730693, 0.236295711303629 ], [ 30.244832478919545, 0.237198982251535 ], [ 30.243935246618666, 0.237199194229612 ], [ 30.243935457551391, 0.238102465983383 ], [ 30.243038224390677, 0.238102678710103 ], [ 30.243038436066829, 0.239005951269513 ], [ 30.242141202046284, 0.239006164744431 ], [ 30.242142488580697, 0.24442580491246 ], [ 30.243039722955761, 0.244425586596785 ], [ 30.243039940242582, 0.245328859146417 ], [ 30.243937173875985, 0.245328639963577 ], [ 30.243937610974584, 0.247135183444553 ], [ 30.244834843926618, 0.247134962586865 ], [ 30.244835063739053, 0.248038233517975 ], [ 30.24573229594964, 0.24803801179201 ], [ 30.245732516624788, 0.248941281914227 ], [ 30.246629748093927, 0.248941059319541 ], [ 30.246629969632227, 0.249844328632635 ], [ 30.248424430284977, 0.24984388164345 ], [ 30.248424208624755, 0.248940613946387 ], [ 30.249321437686003, 0.24894039116792 ] ] ] ] } }
]
}
