{
"type": "FeatureCollection",
"name": "flood_extent_2026-06",
"crs": { "type": "name", "properties": { "name": "urn:ogc:def:crs:OGC:1.3:CRS84" } },
"features": [
{ "type": "Feature", "properties": { "month": "2026-06" }, "geometry": { "type": "MultiPolygon", "coordinates": [ [ [ [ 29.822048053940506, -5.209660919346502 ], [ 29.822076309989509, -5.215985783215928 ], [ 29.820273738622269, -5.215993879077716 ], [ 29.820277775466046, -5.21689743235289 ], [ 29.818475198691619, -5.216905524467482 ], [ 29.818471164419652, -5.216001969783314 ], [ 29.817569876255646, -5.216006013202526 ], [ 29.817565843977761, -5.215102457785175 ], [ 29.816664556391281, -5.215106499211391 ], [ 29.81665246766228, -5.212395830673481 ], [ 29.8157511832236, -5.212399868699729 ], [ 29.81573910471959, -5.209689197789749 ], [ 29.817541665181633, -5.209681124671968 ], [ 29.817537637860767, -5.208777569051629 ], [ 29.818438915745592, -5.208773531265647 ], [ 29.818434887848969, -5.207869976320476 ], [ 29.821138713400842, -5.207857857352757 ], [ 29.821146777606344, -5.20966496298655 ], [ 29.822048053940506, -5.209660919346502 ] ] ], [ [ [ 30.250218444965334, 0.248036902246613 ], [ 30.251115672359479, 0.248036680154421 ], [ 30.251115232690839, 0.246230149604551 ], [ 30.252012459160653, 0.246229929069354 ], [ 30.252011373752346, 0.241713606714932 ], [ 30.251114147580704, 0.24171382320505 ], [ 30.251113932969211, 0.240810557920936 ], [ 30.250216706053035, 0.24081077354278 ], [ 30.250215855875851, 0.237197709157279 ], [ 30.249318628390064, 0.237197921485581 ], [ 30.249318417911866, 0.236294654577194 ], [ 30.247523960647055, 0.236295077442214 ], [ 30.247523751087215, 0.235391808915986 ], [ 30.246626521308407, 0.23539201945337 ], [ 30.246626730810597, 0.236295288787501 ], [ 30.245729500171741, 0.236295500074639 ], [ 30.245729710418459, 0.237198770215086 ], [ 30.244832478919545, 0.237198982251535 ], [ 30.244832689910361, 0.238102253198069 ], [ 30.243935457551391, 0.238102465983383 ], [ 30.243935881822075, 0.239909009486792 ], [ 30.243038648544513, 0.239909223827542 ], [ 30.243040158330931, 0.246232131694632 ], [ 30.24393739202441, 0.246231911704777 ], [ 30.243937830726498, 0.248038455182901 ], [ 30.244835063739053, 0.248038233517975 ], [ 30.244835284353464, 0.248941504447652 ], [ 30.246629748093927, 0.248941059319541 ], [ 30.246629969632227, 0.249844328632635 ], [ 30.248424430284977, 0.24984388164345 ], [ 30.248424208624755, 0.248940613946387 ], [ 30.250218665944182, 0.248940168328194 ], [ 30.250218444965334, 0.248036902246613 ] ] ], [ [ [ 30.177151503638004, 1.057438867040948 ], [ 30.178048939190003, 1.057437941523791 ], [ 30.178048019973627, 1.056534614025847 ], [ 30.178945454481095, 1.056533689039401 ], [ 30.178943617890074, 1.054727035607355 ], [ 30.17804618389896, 1.054727959011748 ], [ 30.178045267040659, 1.053824631495603 ], [ 30.177147832521367, 1.053825553849542 ], [ 30.177146916706722, 1.052922225536538 ], [ 30.175352045826198, 1.052924067885194 ], [ 30.175351131312166, 1.052020737985201 ], [ 30.173556257805021, 1.052022577716976 ], [ 30.173557171804244, 1.052925909197018 ], [ 30.172659733615774, 1.052926829464115 ], [ 30.172660648142283, 1.053830161727799 ], [ 30.171763208911496, 1.053831082525153 ], [ 30.171765039802683, 1.055637748613293 ], [ 30.170867599271485, 1.055638670729706 ], [ 30.170869432783782, 1.057445338372086 ], [ 30.171766873831785, 1.057444414677178 ], [ 30.171767792023065, 1.058347747700011 ], [ 30.172665232545324, 1.058346822955307 ], [ 30.172666151780039, 1.05925015518259 ], [ 30.176255907055673, 1.059246450438218 ], [ 30.176254986785139, 1.058343121371043 ], [ 30.177152423381678, 1.058342195323621 ], [ 30.177151503638004, 1.057438867040948 ] ] ], [ [ [ 30.198741841736194, 1.107098581908162 ], [ 30.197844409761856, 1.107099557188626 ], [ 30.197843441357843, 1.106196247487151 ], [ 30.196946008863183, 1.106197221699367 ], [ 30.19694504152055, 1.105293911195803 ], [ 30.193355304718487, 1.105297802140967 ], [ 30.193356270979436, 1.106201115825196 ], [ 30.192458834533323, 1.106202088675887 ], [ 30.192460768883247, 1.108008717614468 ], [ 30.193358205870872, 1.108007743174555 ], [ 30.193360143921716, 1.109814370498412 ], [ 30.19425758066189, 1.109813394196078 ], [ 30.194258551143623, 1.110716707053595 ], [ 30.196950857437383, 1.110713774121582 ], [ 30.19694988614107, 1.109810463649904 ], [ 30.198744752507203, 1.109808508586491 ], [ 30.198741841736194, 1.107098581908162 ] ] ], [ [ [ 30.261590104823522, 1.134127211225149 ], [ 30.262487488294479, 1.134126192246324 ], [ 30.2624844544345, 1.131416437335026 ], [ 30.26158707179443, 1.131417453878608 ], [ 30.261586062398095, 1.130514201416661 ], [ 30.260688679227858, 1.130515216870278 ], [ 30.2606876709145, 1.129611963590265 ], [ 30.259790287214116, 1.12961297795436 ], [ 30.259789279983298, 1.12870972385651 ], [ 30.257994510716202, 1.128711750128766 ], [ 30.257993504843341, 1.127808494402452 ], [ 30.256198732904807, 1.127810517942546 ], [ 30.256197728389026, 1.126907260588665 ], [ 30.255300341487267, 1.126908271132185 ], [ 30.255299338052257, 1.126005012961598 ], [ 30.253504562384432, 1.126007031596912 ], [ 30.25350556526859, 1.126910291387208 ], [ 30.251710785831172, 1.126912310532867 ], [ 30.251711788968716, 1.127815571935467 ], [ 30.252609179365308, 1.127814561692009 ], [ 30.252612194431684, 1.130524343432763 ], [ 30.253509584852083, 1.130523330483175 ], [ 30.253510591759671, 1.131426590240836 ], [ 30.254407981651916, 1.131425576203272 ], [ 30.25440898964095, 1.132328835144645 ], [ 30.255306379005031, 1.132327820018661 ], [ 30.255308397952017, 1.134134336261821 ], [ 30.256205787065127, 1.134133319236781 ], [ 30.256209835731731, 1.137746348403579 ], [ 30.2606967747673, 1.137741242874465 ], [ 30.260695760002243, 1.136837989646927 ], [ 30.261593145112769, 1.13683696851263 ], [ 30.261590104823522, 1.134127211225149 ] ] ], [ [ [ 30.232875417319903, 1.135966227753483 ], [ 30.233772827050245, 1.135965216097482 ], [ 30.233770818204597, 1.134158661124739 ], [ 30.232873409029366, 1.134159671171474 ], [ 30.232872406083512, 1.133256392870646 ], [ 30.23197499638589, 1.133257401833822 ], [ 30.231973994516657, 1.132354122722043 ], [ 30.229281761459355, 1.132357145526109 ], [ 30.229282762497572, 1.133260427049784 ], [ 30.22838534960372, 1.133261434897245 ], [ 30.228386351163433, 1.1341647172179 ], [ 30.227488937193844, 1.134165725589726 ], [ 30.227491945831023, 1.136875574922301 ], [ 30.228389360633631, 1.136874564140577 ], [ 30.22839036538738, 1.137777846435022 ], [ 30.231082605837596, 1.137774809999689 ], [ 30.231081600249503, 1.136871530116479 ], [ 30.232876422664592, 1.136869506034655 ], [ 30.232875417319903, 1.135966227753483 ] ] ], [ [ [ 30.274156451857365, 1.136822643256606 ], [ 30.27325907806058, 1.136823668307647 ], [ 30.273257043173452, 1.135017184596063 ], [ 30.272359669122544, 1.13501820773851 ], [ 30.272357638028208, 1.133211722371799 ], [ 30.270562888607724, 1.133213764562412 ], [ 30.270561874828459, 1.132310520241045 ], [ 30.266972367390373, 1.132314598022116 ], [ 30.266975407828767, 1.135024340727514 ], [ 30.266078028117143, 1.135025361914724 ], [ 30.266079042935004, 1.135928610282917 ], [ 30.266976422924248, 1.135927588282847 ], [ 30.26697845553926, 1.137734083373778 ], [ 30.267875835276389, 1.137733059467994 ], [ 30.267876853074196, 1.138636306190499 ], [ 30.266979473058782, 1.138637330909368 ], [ 30.266980491386327, 1.139540578438365 ], [ 30.267877871680241, 1.139539552906412 ], [ 30.267878891094522, 1.140442799615728 ], [ 30.268776270858918, 1.140441772990033 ], [ 30.268777291360383, 1.141345018879437 ], [ 30.270572049021453, 1.1413429631588 ], [ 30.270573070889704, 1.142246207414312 ], [ 30.275059952278493, 1.142241059125332 ], [ 30.27505688491641, 1.139531338555273 ], [ 30.274159511094584, 1.139532366330662 ], [ 30.274156451857365, 1.136822643256606 ] ] ], [ [ [ 30.255324665468464, 1.148586465259093 ], [ 30.254427271085067, 1.148587494964591 ], [ 30.254426248607398, 1.147684236141881 ], [ 30.253528853699795, 1.147685264754948 ], [ 30.253527832307565, 1.146782005115847 ], [ 30.252630436875762, 1.146783032636927 ], [ 30.252629416568535, 1.145879772181664 ], [ 30.251732020612526, 1.145880798611201 ], [ 30.251733040639465, 1.146784059875773 ], [ 30.249938245754276, 1.146786113506757 ], [ 30.249940287098461, 1.14859263925191 ], [ 30.250837685504329, 1.148591610959807 ], [ 30.25083973062597, 1.150398135060669 ], [ 30.252634526149592, 1.15039607439162 ], [ 30.252635550479287, 1.151299334813678 ], [ 30.253532947315858, 1.151298303244934 ], [ 30.253533972731667, 1.152201562850801 ], [ 30.254431369045136, 1.152200530188956 ], [ 30.25443034334771, 1.151297271392846 ], [ 30.255327738574625, 1.151296239257414 ], [ 30.255324665468464, 1.148586465259093 ] ] ], [ [ [ 30.506393657395478, -5.133076666683461 ], [ 30.50549308808143, -5.133081616346361 ], [ 30.505502961757909, -5.13488752576981 ], [ 30.504602389040119, -5.134892475917522 ], [ 30.504607325935844, -5.135795431458893 ], [ 30.503706751076127, -5.135800381215785 ], [ 30.503701815442696, -5.134897424799674 ], [ 30.502801240965884, -5.134902372416263 ], [ 30.502806175337007, -5.135805329706887 ], [ 30.49920386359096, -5.135825111013293 ], [ 30.499198934269103, -5.134922150226847 ], [ 30.497397775650171, -5.134932031538592 ], [ 30.497402702447349, -5.13583499407161 ], [ 30.496502120558688, -5.135839933702023 ], [ 30.496497195023849, -5.134936970296057 ], [ 30.492894863744812, -5.134956712669721 ], [ 30.492880107548803, -5.132247811802096 ], [ 30.497383000525549, -5.132223143758421 ], [ 30.497387924689274, -5.133126106381994 ], [ 30.498288501913766, -5.13312116810526 ], [ 30.498283576488376, -5.132218206354853 ], [ 30.500084725779711, -5.132208327752932 ], [ 30.500079798709496, -5.131305367719346 ], [ 30.500980370776134, -5.131300427394841 ], [ 30.500975443323195, -5.130397468204911 ], [ 30.503677150466441, -5.130382642266127 ], [ 30.50368208170293, -5.131285598833217 ], [ 30.506383784715354, -5.131270758889565 ], [ 30.506393657395478, -5.133076666683461 ] ] ], [ [ [ 30.54146535218894, -5.123853445996915 ], [ 30.542365873521586, -5.123848454575969 ], [ 30.542420694037926, -5.133780561512427 ], [ 30.541520158840164, -5.133785562658643 ], [ 30.541530135240489, -5.135591401657979 ], [ 30.540629596630033, -5.135596403306926 ], [ 30.540634584901198, -5.136499323645041 ], [ 30.539734044139841, -5.136504324912138 ], [ 30.539739032037136, -5.13740724610363 ], [ 30.535236308596136, -5.137432237867585 ], [ 30.535231327011434, -5.136529312261001 ], [ 30.534330780923003, -5.136534305933405 ], [ 30.534325801487896, -5.135631379414177 ], [ 30.533425255774727, -5.135636370938655 ], [ 30.533420278488766, -5.134733443507013 ], [ 30.530718639815525, -5.13474840784189 ], [ 30.530708695474665, -5.132942547597747 ], [ 30.531609240061975, -5.132937562514384 ], [ 30.531564523046146, -5.124811197851017 ], [ 30.532465055402309, -5.124806219437627 ], [ 30.532455125518577, -5.123000362054253 ], [ 30.533355654469631, -5.122995384141687 ], [ 30.533350689598596, -5.122092456286539 ], [ 30.535151742322373, -5.122082498438443 ], [ 30.535146775820632, -5.121179572317476 ], [ 30.536947822478265, -5.121169611185787 ], [ 30.536942854346734, -5.120266686799891 ], [ 30.540544931974825, -5.120246752926005 ], [ 30.540554879194108, -5.12205259460108 ], [ 30.541455398897508, -5.12204760621051 ], [ 30.54146535218894, -5.123853445996915 ] ] ], [ [ [ 30.55135606776992, -5.121089740410769 ], [ 30.552256575534795, -5.121084737761044 ], [ 30.552276542548185, -5.124696374837997 ], [ 30.553177054457326, -5.124691367379259 ], [ 30.553197040773608, -5.128303000424615 ], [ 30.554998071995126, -5.128292974621815 ], [ 30.555013078659037, -5.131001693764879 ], [ 30.554112559712451, -5.131006709959853 ], [ 30.554107557859787, -5.130103802721895 ], [ 30.552306519812596, -5.130113829545024 ], [ 30.552311519143586, -5.131016738556814 ], [ 30.551410997521771, -5.131021750958791 ], [ 30.551405999451628, -5.130118841060419 ], [ 30.550505478199369, -5.130123851311693 ], [ 30.550495487253968, -5.128318029651334 ], [ 30.549594967631688, -5.128323036866222 ], [ 30.549589974755751, -5.127420125104475 ], [ 30.548689455502835, -5.127425130169774 ], [ 30.548684464777683, -5.126522217491842 ], [ 30.547783945894146, -5.126527220407995 ], [ 30.54777895731932, -5.125624306814113 ], [ 30.54687843880518, -5.125629307581565 ], [ 30.546863482200731, -5.122920563961978 ], [ 30.545962966574386, -5.122925560810731 ], [ 30.545943041930752, -5.119313898686934 ], [ 30.546843552523008, -5.119308905379035 ], [ 30.546833593024697, -5.117503075906161 ], [ 30.54773410021118, -5.117498083107652 ], [ 30.547729120539636, -5.116595169211309 ], [ 30.548629625578322, -5.116590176037436 ], [ 30.5486246455398, -5.115687262996525 ], [ 30.550425650430853, -5.115677274638395 ], [ 30.550430632983907, -5.116580185907341 ], [ 30.55133113535036, -5.11657518895113 ], [ 30.55135606776992, -5.121089740410769 ] ] ], [ [ [ 30.71143599474, -4.229130580007195 ], [ 30.712335203800805, -4.229126260800312 ], [ 30.71234381101663, -4.230931802754966 ], [ 30.713243021223846, -4.230927480656696 ], [ 30.713251634220825, -4.232733020658886 ], [ 30.714150845575087, -4.232728695668329 ], [ 30.714168086843966, -4.236339771665104 ], [ 30.713268871338922, -4.236344100358385 ], [ 30.713277495460119, -4.23814964005561 ], [ 30.712378276951313, -4.238153969557551 ], [ 30.712386902703045, -4.239959511003972 ], [ 30.711487681189769, -4.239963841313682 ], [ 30.711491994416722, -4.24086661292398 ], [ 30.709693546532261, -4.240875272263701 ], [ 30.709697858607043, -4.241778045698384 ], [ 30.707899404939138, -4.241786702713419 ], [ 30.70788647772833, -4.239078376786233 ], [ 30.706987252623232, -4.239082700955888 ], [ 30.706965730977373, -4.234568819281448 ], [ 30.706066510138264, -4.23457313778861 ], [ 30.706053611368475, -4.231864805707426 ], [ 30.705154392716359, -4.231869120401702 ], [ 30.705150096013828, -4.23096634206687 ], [ 30.706049313628981, -4.230962028296263 ], [ 30.706036425961756, -4.228253695910538 ], [ 30.706935639542166, -4.228249383870614 ], [ 30.706931344467431, -4.227346607281865 ], [ 30.710528185388462, -4.227329352416964 ], [ 30.710532484607405, -4.228232125307954 ], [ 30.711431693558492, -4.228227808066571 ], [ 30.71143599474, -4.229130580007195 ] ] ], [ [ [ 30.660225559661853, -1.845830651685743 ], [ 30.662020141350752, -1.845826929989701 ], [ 30.662025694871474, -1.848535516612177 ], [ 30.660231110475884, -1.848539243773113 ], [ 30.660225559661853, -1.845830651685743 ] ] ], [ [ [ 30.679094727020278, -1.358252403550354 ], [ 30.678197666009989, -1.358253779516214 ], [ 30.678196299486618, -1.357350929449918 ], [ 30.679990419934601, -1.357348179014632 ], [ 30.679993155217044, -1.359153875478824 ], [ 30.679096094784803, -1.359155252693551 ], [ 30.679094727020278, -1.358252403550354 ] ] ], [ [ [ 30.281352883158171, 1.152169418481317 ], [ 30.2822502544157, 1.15216837702953 ], [ 30.282249219988845, 1.15126514344616 ], [ 30.281351849012889, 1.151266184081298 ], [ 30.281352883158171, 1.152169418481317 ] ] ] ] } }
]
}
