{
"type": "FeatureCollection",
"name": "flood_extent_2026-01",
"crs": { "type": "name", "properties": { "name": "urn:ogc:def:crs:OGC:1.3:CRS84" } },
"features": [
{ "type": "Feature", "properties": { "month": "2026-01" }, "geometry": { "type": "MultiPolygon", "coordinates": [ [ [ [ 30.248424608191204, 0.25056649580006 ], [ 30.248424385888708, 0.249663228104153 ], [ 30.249321614998703, 0.249663004679006 ], [ 30.249321393438137, 0.248759737790005 ], [ 30.250218621684148, 0.248759515111992 ], [ 30.250218400865958, 0.247856249030125 ], [ 30.251115628247984, 0.247856027099692 ], [ 30.251115188900751, 0.24604949654925 ], [ 30.252012415358532, 0.246049276175856 ], [ 30.252011330753955, 0.241532953820024 ], [ 30.25111410459413, 0.241533170148339 ], [ 30.251113890143333, 0.240629904863946 ], [ 30.250216663238927, 0.240630120324031 ], [ 30.25021602488308, 0.237920322036145 ], [ 30.249318797350838, 0.237920535011304 ], [ 30.249318586230185, 0.237017268104013 ], [ 30.247524128872815, 0.237017692262212 ], [ 30.247523918670876, 0.236114423737077 ], [ 30.246626688845971, 0.236114634920784 ], [ 30.246626898990083, 0.237017904253822 ], [ 30.244832436817621, 0.237018328062063 ], [ 30.244832647648042, 0.237921599008872 ], [ 30.243935415300708, 0.237921811632739 ], [ 30.24393562687483, 0.238825083385409 ], [ 30.243038393667479, 0.238825296757741 ], [ 30.243038605984854, 0.239728569316047 ], [ 30.242141371917494, 0.239728783436399 ], [ 30.242141798839171, 0.241535330162433 ], [ 30.241244563852867, 0.241535545836931 ], [ 30.241244778456505, 0.242438820004428 ], [ 30.242142013501962, 0.24243860352336 ], [ 30.242142445231458, 0.244245150241005 ], [ 30.243039679594578, 0.244244932086689 ], [ 30.243040114649137, 0.246051477185103 ], [ 30.243937348330586, 0.24605125735665 ], [ 30.243937786711978, 0.247857800835346 ], [ 30.244835019712408, 0.247857579331868 ], [ 30.244835461422404, 0.249664121190357 ], [ 30.245732693742479, 0.249663898010964 ], [ 30.245732915861566, 0.250567168130586 ], [ 30.248424608191204, 0.25056649580006 ] ] ], [ [ [ 30.426842345319415, 1.252963453905189 ], [ 30.427739615034749, 1.252962271209194 ], [ 30.427737266297449, 1.251156076075749 ], [ 30.426839997193994, 1.25115725706632 ], [ 30.426838824402548, 1.250254158635872 ], [ 30.425044284264569, 1.250256517989128 ], [ 30.425045456444789, 1.251159618124332 ], [ 30.424148184799481, 1.251160798191769 ], [ 30.424151705504361, 1.253870101109462 ], [ 30.426843520653385, 1.253866552313601 ], [ 30.426842345319415, 1.252963453905189 ] ] ], [ [ [ 30.449292863586969, 1.267383025558392 ], [ 30.448395609351778, 1.267384229378438 ], [ 30.448398002863247, 1.269190384897842 ], [ 30.449295257718209, 1.269189179361687 ], [ 30.449292863586969, 1.267383025558392 ] ] ] ] } }
]
}
