{
"type": "FeatureCollection",
"name": "flood_extent_2025-11",
"crs": { "type": "name", "properties": { "name": "urn:ogc:def:crs:OGC:1.3:CRS84" } },
"features": [
{ "type": "Feature", "properties": { "month": "2025-11" }, "geometry": { "type": "Polygon", "coordinates": [ [ [ 30.246630147440595, 0.250566944082072 ], [ 30.246629925260372, 0.249663674770132 ], [ 30.245732693742479, 0.249663898010964 ], [ 30.245732251910873, 0.247857357767395 ], [ 30.244835019712408, 0.247857579331868 ], [ 30.24483436316217, 0.245147766533402 ], [ 30.243937130342506, 0.245147985615167 ], [ 30.243936696771588, 0.243341442127956 ], [ 30.243039463269586, 0.243341659535362 ], [ 30.243039247746115, 0.24243838698263 ], [ 30.243936481188744, 0.242438170382238 ], [ 30.243936266407648, 0.24153489863512 ], [ 30.245730730769154, 0.241534466870051 ], [ 30.245730945668555, 0.242437737002473 ], [ 30.246628176705283, 0.2424375202231 ], [ 30.246628392466246, 0.243340789546438 ], [ 30.249320080939231, 0.243340136425978 ], [ 30.249320515226586, 0.245146670219671 ], [ 30.25021774323114, 0.245146450775944 ], [ 30.250218621684148, 0.248759515111992 ], [ 30.249321393438137, 0.248759737790005 ], [ 30.249321614998703, 0.249663004679006 ], [ 30.248424385888708, 0.249663228104153 ], [ 30.248424608191204, 0.25056649580006 ], [ 30.246630147440595, 0.250566944082072 ] ] ] } }
]
}
