{
"type": "FeatureCollection",
"name": "flood_extent_2026-02",
"crs": { "type": "name", "properties": { "name": "urn:ogc:def:crs:OGC:1.3:CRS84" } },
"features": [
{ "type": "Feature", "properties": { "month": "2026-02" }, "geometry": { "type": "MultiPolygon", "coordinates": [ [ [ [ 30.520943009164348, -4.063150824284422 ], [ 30.520043796580012, -4.06315476057665 ], [ 30.520035959482531, -4.061348825403893 ], [ 30.521834379788835, -4.061340955329897 ], [ 30.521838299890145, -4.06224392117285 ], [ 30.520939089180388, -4.062247857587624 ], [ 30.520943009164348, -4.063150824284422 ] ] ], [ [ [ 30.519922716333411, -4.035162754648846 ], [ 30.519930502494816, -4.036968691207322 ], [ 30.518132132283331, -4.036976509911004 ], [ 30.518124350079937, -4.035170569843702 ], [ 30.519922716333411, -4.035162754648846 ] ] ], [ [ [ 30.444331291809284, -4.021941949927517 ], [ 30.44432749604249, -4.021038908341396 ], [ 30.447025210429487, -4.021027469731155 ], [ 30.447032808740303, -4.02283354772583 ], [ 30.443435846614832, -4.022848804096676 ], [ 30.443432050975154, -4.021945761675578 ], [ 30.444331291809284, -4.021941949927517 ] ] ], [ [ [ 30.34531043509271, -3.997970658265462 ], [ 30.345314100646124, -3.99887379356063 ], [ 30.343515482985506, -3.99888115473503 ], [ 30.343511819393928, -3.997978017772165 ], [ 30.34531043509271, -3.997970658265462 ] ] ], [ [ [ 30.352508537885523, -3.998844309454704 ], [ 30.352515887195942, -4.000650566615841 ], [ 30.348918667410665, -4.000665323233701 ], [ 30.348907656472985, -3.997955927432161 ], [ 30.350706262150897, -3.997948556105635 ], [ 30.350702591548043, -3.99704542579566 ], [ 30.351601892152505, -3.997041739490466 ], [ 30.351598221405176, -3.996138609992761 ], [ 30.35339681814445, -3.996131236099864 ], [ 30.353393146272889, -3.995228108250622 ], [ 30.354292442407498, -3.995224420663596 ], [ 30.35430346347334, -3.997933801633019 ], [ 30.35340416439746, -3.997937491728607 ], [ 30.353407838778914, -3.998840619508099 ], [ 30.352508537885523, -3.998844309454704 ] ] ], [ [ [ 30.392446038795345, -3.867728883104452 ], [ 30.392449634487079, -3.868631977186235 ], [ 30.389752257097268, -3.868642808871744 ], [ 30.389748664251151, -3.86773971225402 ], [ 30.388849537712503, -3.867743320065272 ], [ 30.38884235645213, -3.865937125072384 ], [ 30.389741481094351, -3.865933518950862 ], [ 30.389734301318082, -3.864127325557461 ], [ 30.392431664486494, -3.864116506551611 ], [ 30.392442443949427, -3.866825789000093 ], [ 30.393341566157858, -3.866822178224074 ], [ 30.393345161952084, -3.867725271482673 ], [ 30.392446038795345, -3.867728883104452 ] ] ], [ [ [ 30.200219255678309, -2.067311303980924 ], [ 30.200221067032437, -2.068214603166712 ], [ 30.1993232217764, -2.06821642566891 ], [ 30.19932684585082, -2.070023025598075 ], [ 30.196633302288514, -2.0700284948263 ], [ 30.196631491374486, -2.069125192479059 ], [ 30.195733642442391, -2.06912701373995 ], [ 30.195731832826773, -2.068223710585048 ], [ 30.193936133599763, -2.068227349987494 ], [ 30.193932518768086, -2.066420740460317 ], [ 30.195728215971197, -2.06641710423956 ], [ 30.195726408731232, -2.065513801048982 ], [ 30.197522101755538, -2.065510164384652 ], [ 30.197523910006783, -2.066413465983497 ], [ 30.199319600873071, -2.066409825692144 ], [ 30.199321410928349, -2.067313125686474 ], [ 30.200219255678309, -2.067311303980924 ] ] ], [ [ [ 30.188540000957342, -2.06372170822914 ], [ 30.189437853183723, -2.063719895808117 ], [ 30.189441458213597, -2.065526513352995 ], [ 30.188543604976562, -2.065528327361965 ], [ 30.188540000957342, -2.06372170822914 ] ] ], [ [ [ 30.188534600854268, -2.061011779440936 ], [ 30.188538200132886, -2.06281839864493 ], [ 30.1876403476214, -2.062820209764028 ], [ 30.187636749352109, -2.061013588972539 ], [ 30.188534600854268, -2.061011779440936 ] ] ], [ [ [ 30.342075818450056, -1.585624155419253 ], [ 30.342080172916628, -1.588333681465751 ], [ 30.342977651082862, -1.588332219319603 ], [ 30.342979104614397, -1.589235393818111 ], [ 30.342081626059709, -1.589236856796089 ], [ 30.34208453482724, -1.591043207428994 ], [ 30.341187054667859, -1.59104467167916 ], [ 30.341188509903187, -1.591947847813326 ], [ 30.339393546325702, -1.591950776801775 ], [ 30.339392091868614, -1.591047599005055 ], [ 30.338494609229194, -1.591049062080781 ], [ 30.338491703571979, -1.589242704797671 ], [ 30.337594220883911, -1.589244165820473 ], [ 30.337588421036791, -1.585631447820386 ], [ 30.338485902172341, -1.585629990120455 ], [ 30.33848300642989, -1.583823632726434 ], [ 30.340277964672232, -1.583820719480322 ], [ 30.340279412905051, -1.584723896519848 ], [ 30.341176891173681, -1.584722438480857 ], [ 30.341178340620743, -1.585625614679771 ], [ 30.342075818450056, -1.585624155419253 ] ] ], [ [ [ 30.250218621684148, 0.248759515111992 ], [ 30.250218400865958, 0.247856249030125 ], [ 30.251115628247984, 0.247856027099692 ], [ 30.251113890143333, 0.240629904863946 ], [ 30.250216663238927, 0.240630120324031 ], [ 30.250216236865072, 0.23882358813349 ], [ 30.249319009274569, 0.238823801917219 ], [ 30.249318586230185, 0.237017268104013 ], [ 30.248421357952925, 0.237017480212276 ], [ 30.248421147693158, 0.236114212495266 ], [ 30.245729458218655, 0.236114846046386 ], [ 30.245729668304946, 0.237018116187106 ], [ 30.244832436817621, 0.237018328062063 ], [ 30.244832647648042, 0.237921599008872 ], [ 30.243038182151629, 0.237922024198056 ], [ 30.243038605984854, 0.239728569316047 ], [ 30.242141371917494, 0.239728783436399 ], [ 30.242142445231458, 0.244245150241005 ], [ 30.243039679594578, 0.244244932086689 ], [ 30.243040114649137, 0.246051477185103 ], [ 30.243937348330586, 0.24605125735665 ], [ 30.243937786711978, 0.247857800835346 ], [ 30.244835019712408, 0.247857579331868 ], [ 30.244835240166424, 0.248760850261831 ], [ 30.24573247242558, 0.248760627889898 ], [ 30.245732915861566, 0.250567168130586 ], [ 30.248424608191204, 0.25056649580006 ], [ 30.248424385888708, 0.249663228104153 ], [ 30.249321614998703, 0.249663004679006 ], [ 30.249321393438137, 0.248759737790005 ], [ 30.250218621684148, 0.248759515111992 ] ] ], [ [ [ 29.538309857413861, 1.395884703984166 ], [ 29.538308887894253, 1.394980871667798 ], [ 29.537410836135944, 1.39498184693992 ], [ 29.537411805313443, 1.395885679888423 ], [ 29.538309857413861, 1.395884703984166 ] ] ], [ [ [ 29.525730330933847, 1.38957144711805 ], [ 29.525731291910873, 1.390475288309755 ], [ 29.523935173630026, 1.3904772225827 ], [ 29.523936134550471, 1.39138106502459 ], [ 29.523038074131367, 1.391382032274959 ], [ 29.523039997164613, 1.393189718393019 ], [ 29.52214193543799, 1.393190686556735 ], [ 29.522144823648166, 1.395902217561659 ], [ 29.521246760271197, 1.395903187265948 ], [ 29.521247723914737, 1.396807031547106 ], [ 29.520349659571039, 1.396808001534839 ], [ 29.520350623496366, 1.39771184643625 ], [ 29.519452558185939, 1.39771281670698 ], [ 29.51945352239261, 1.398616662228418 ], [ 29.517657389214584, 1.398618602989848 ], [ 29.517658353359113, 1.399522449758316 ], [ 29.516760285491738, 1.399523420248345 ], [ 29.516763180635813, 1.402234962388814 ], [ 29.518559317807942, 1.402233017300693 ], [ 29.51856028479034, 1.403136863411276 ], [ 29.526642874260872, 1.403128087731792 ], [ 29.526641904183258, 1.402224247276328 ], [ 29.528438027611809, 1.402222294575899 ], [ 29.528437057472537, 1.401318455371906 ], [ 29.529335117904015, 1.401317479132589 ], [ 29.529334148047436, 1.400413640550832 ], [ 29.530232207509084, 1.400412664595864 ], [ 29.530231237935634, 1.399508826636569 ], [ 29.532027354292456, 1.399506874950891 ], [ 29.53202638465957, 1.398603038244862 ], [ 29.533822497822243, 1.398601086439677 ], [ 29.533820559066843, 1.396793415528288 ], [ 29.534718614021724, 1.396792440370524 ], [ 29.534717645242896, 1.395888605534597 ], [ 29.53561569922773, 1.39588763066364 ], [ 29.535613762869133, 1.394079962231788 ], [ 29.536511815542038, 1.394078988279775 ], [ 29.536512783749277, 1.394982821867832 ], [ 29.537410836135944, 1.39498184693992 ], [ 29.53740889966603, 1.393174181019993 ], [ 29.538306950740765, 1.393173207012141 ], [ 29.538307919003216, 1.394077039343788 ], [ 29.539205969791045, 1.394076064359816 ], [ 29.539206939023977, 1.394979896051468 ], [ 29.540104989524895, 1.394978920090931 ], [ 29.540106930561613, 1.396786582186137 ], [ 29.541903031045063, 1.396784626700779 ], [ 29.54190400319208, 1.397688456471072 ], [ 29.544598150223337, 1.397685518757741 ], [ 29.544599124028146, 1.398589346619946 ], [ 29.545497172121365, 1.398588366058508 ], [ 29.545496197973776, 1.397684538830224 ], [ 29.547292291583368, 1.397682577940588 ], [ 29.547291317381038, 1.396778751973156 ], [ 29.548189362897187, 1.39677777164563 ], [ 29.54818547102791, 1.393162470237744 ], [ 29.547287426879734, 1.393163448026911 ], [ 29.547286455831397, 1.392259622021246 ], [ 29.546388411393863, 1.392260598832298 ], [ 29.546387441317549, 1.391356772184636 ], [ 29.545489396590661, 1.391357748018019 ], [ 29.54548842748591, 1.390453920728589 ], [ 29.542794290547036, 1.390456844267809 ], [ 29.542793323094969, 1.389553015069675 ], [ 29.538303083976714, 1.389557877609281 ], [ 29.538302118857143, 1.388654045239523 ], [ 29.536506019489405, 1.388655986591245 ], [ 29.53650698392785, 1.389559820225045 ], [ 29.533812829144129, 1.389562731577148 ], [ 29.53381475786, 1.391370402610692 ], [ 29.532916704328393, 1.391371373637678 ], [ 29.532915739997737, 1.390467537493696 ], [ 29.531119631735052, 1.390469477256334 ], [ 29.531118668713226, 1.389565639843372 ], [ 29.525730330933847, 1.38957144711805 ] ], [ [ 29.532024447274893, 1.396795364809835 ], [ 29.532022512398331, 1.394987691344213 ], [ 29.531124456246172, 1.394988664206844 ], [ 29.531123490090344, 1.394084826831999 ], [ 29.53291960108383, 1.39408288202389 ], [ 29.532921535390358, 1.395890554243201 ], [ 29.533819590630358, 1.395889580061118 ], [ 29.533820559066843, 1.396793415528288 ], [ 29.532024447274893, 1.396795364809835 ] ], [ [ 29.534712810764137, 1.391369431240383 ], [ 29.534714742672566, 1.393177100980965 ], [ 29.533816689085736, 1.393178073613756 ], [ 29.53381475786, 1.391370402610692 ], [ 29.534712810764137, 1.391369431240383 ] ], [ [ 29.536508914689129, 1.391367487469806 ], [ 29.537406965709533, 1.391366515069539 ], [ 29.537407932373601, 1.392270348048579 ], [ 29.536509881011963, 1.392271321080756 ], [ 29.536508914689129, 1.391367487469806 ] ] ], [ [ [ 28.981408060445613, 2.22555545972644 ], [ 28.979610444931694, 2.22555788812179 ], [ 28.97960923873228, 2.224653714026526 ], [ 28.976014003997008, 2.224658562242916 ], [ 28.976020028963134, 2.229179442463385 ], [ 28.976918841119382, 2.229178228770392 ], [ 28.976920048131937, 2.230082404286372 ], [ 28.979616483299271, 2.230078758421413 ], [ 28.979615274643017, 2.229174584385063 ], [ 28.98141289453563, 2.22917215203957 ], [ 28.981408060445613, 2.22555545972644 ] ], [ [ 28.976917634597527, 2.228274053242622 ], [ 28.977816445715394, 2.228272839491555 ], [ 28.977817652784928, 2.229177014526339 ], [ 28.976918841119382, 2.229178228770392 ], [ 28.976917634597527, 2.228274053242622 ] ] ], [ [ [ 30.539715098232325, -5.133073224108077 ], [ 30.538814561378029, -5.133078220752259 ], [ 30.538804597523029, -5.131272376281187 ], [ 30.540605665297985, -5.131262385262167 ], [ 30.540610649303812, -5.132165305745718 ], [ 30.539710114599316, -5.132170302771139 ], [ 30.539715098232325, -5.133073224108077 ] ] ], [ [ [ 30.551347089532193, -5.119464501972392 ], [ 30.551372036211244, -5.123979052948061 ], [ 30.550471523526827, -5.123984057172175 ], [ 30.550476514277015, -5.12488696816286 ], [ 30.548675483716671, -5.124896974595267 ], [ 30.548670495485137, -5.123994061832573 ], [ 30.54686946388118, -5.124004061442493 ], [ 30.546859495125851, -5.122198232284102 ], [ 30.545958980506612, -5.122203228424681 ], [ 30.545949017828853, -5.120397397374871 ], [ 30.546849529930959, -5.120392403004721 ], [ 30.546834588814317, -5.117683658858886 ], [ 30.547735096252328, -5.117678665883294 ], [ 30.547730116402725, -5.116775751992996 ], [ 30.549531126092536, -5.11676576403016 ], [ 30.549521164035394, -5.114959939701949 ], [ 30.551322165133456, -5.114949950240641 ], [ 30.551342102870045, -5.118561591686507 ], [ 30.550441597736839, -5.118566590592628 ], [ 30.55044658314101, -5.119469501764838 ], [ 30.551347089532193, -5.119464501972392 ] ] ], [ [ [ 30.678080304174671, -4.577960666165238 ], [ 30.678066460035446, -4.575252273041954 ], [ 30.679865776411706, -4.575243011934225 ], [ 30.679870392449494, -4.576145807834449 ], [ 30.680770050379483, -4.576141174673566 ], [ 30.680779287461529, -4.577946764556325 ], [ 30.678080304174671, -4.577960666165238 ] ] ], [ [ [ 30.693143863039325, -4.352180981634504 ], [ 30.693135053913192, -4.3503754059711 ], [ 30.695833159876063, -4.350362140027655 ], [ 30.695828753497871, -4.349459354919988 ], [ 30.696728119239655, -4.349454931719297 ], [ 30.696732526684173, -4.350357715905474 ], [ 30.697631892568808, -4.35035329071279 ], [ 30.697640712361522, -4.352158857163516 ], [ 30.693143863039325, -4.352180981634504 ] ] ], [ [ [ 30.737871898539769, -4.303210453641142 ], [ 30.737880717224748, -4.305015939382981 ], [ 30.738779987359038, -4.305011511548616 ], [ 30.738797640152445, -4.308622478994085 ], [ 30.735200537127962, -4.308640198881362 ], [ 30.735191717309341, -4.306834707758171 ], [ 30.73429244133202, -4.306839133218008 ], [ 30.734274817108538, -4.303228146937036 ], [ 30.735174088865744, -4.303223725201077 ], [ 30.735160877327321, -4.300515488011548 ], [ 30.736060144989015, -4.300511068010467 ], [ 30.736068953856787, -4.302316557633652 ], [ 30.73696822269374, -4.302312134711748 ], [ 30.73697262958159, -4.303214878553125 ], [ 30.737871898539769, -4.303210453641142 ] ] ], [ [ [ 30.748460674590927, -4.261631586610727 ], [ 30.74846943247659, -4.263437052330961 ], [ 30.747570220916536, -4.263441448838992 ], [ 30.747578980455973, -4.265246916324989 ], [ 30.74578055034943, -4.265255709930189 ], [ 30.745784929432183, -4.266158445502451 ], [ 30.743986493494184, -4.266167236777515 ], [ 30.743977740444492, -4.264361761873555 ], [ 30.74307852316349, -4.264366154070647 ], [ 30.743061032459419, -4.260755200222412 ], [ 30.743960245562491, -4.260750811757721 ], [ 30.743955874178912, -4.259848074164647 ], [ 30.746653504746916, -4.259834905282317 ], [ 30.746657879262234, -4.260737640074772 ], [ 30.747557088624916, -4.260733247417511 ], [ 30.747561465119791, -4.261635981250327 ], [ 30.748460674590927, -4.261631586610727 ] ] ], [ [ [ 30.721263512081961, -4.215722135000777 ], [ 30.721280716697212, -4.219333183252324 ], [ 30.720381528093245, -4.219337502847536 ], [ 30.72040735667693, -4.224754080029125 ], [ 30.721306551488325, -4.224749754869296 ], [ 30.721332419722355, -4.230166325572816 ], [ 30.719534016739843, -4.230174985981144 ], [ 30.71953832929027, -4.23107774953086 ], [ 30.715941508037528, -4.231095061565553 ], [ 30.715945817368777, -4.231997828796577 ], [ 30.714147399101609, -4.232006480420187 ], [ 30.714168949296852, -4.236520325454267 ], [ 30.713269733584173, -4.236524654332685 ], [ 30.713278358076192, -4.238330194019738 ], [ 30.712379139359658, -4.238334523706772 ], [ 30.712392079933583, -4.241042835822976 ], [ 30.711492857173305, -4.241047167242986 ], [ 30.711497171512175, -4.241949938822745 ], [ 30.710597946785857, -4.24195427012434 ], [ 30.710602261011697, -4.242857042603678 ], [ 30.709703034319325, -4.242861373786411 ], [ 30.709707348431678, -4.2437641471651 ], [ 30.708808119773245, -4.243768478228525 ], [ 30.708812433771676, -4.244671252506341 ], [ 30.706114739121166, -4.244684242204269 ], [ 30.706084582405531, -4.238364802318228 ], [ 30.706983807605098, -4.238360479930675 ], [ 30.706936498668163, -4.228429939185324 ], [ 30.7078357115304, -4.228425625920276 ], [ 30.707831415234477, -4.227522850260703 ], [ 30.708730626134969, -4.227518536879644 ], [ 30.708726329728801, -4.226615762119039 ], [ 30.71052474668025, -4.22660713408591 ], [ 30.710529045158147, -4.227509906997191 ], [ 30.711428253280388, -4.227505590495808 ], [ 30.71143255372067, -4.228408362456726 ], [ 30.714130175635528, -4.228395403935679 ], [ 30.714138785514134, -4.230200942228713 ], [ 30.715037993037761, -4.230196618789297 ], [ 30.715016470114968, -4.225682777495833 ], [ 30.71591567153088, -4.225678457646231 ], [ 30.715889868419129, -4.220261852813702 ], [ 30.714990673212178, -4.220266167106697 ], [ 30.714982081663688, -4.218460630107602 ], [ 30.714082887597229, -4.218464941510562 ], [ 30.714070010329905, -4.215756633044427 ], [ 30.714969201296213, -4.21575232441906 ], [ 30.714964909695102, -4.214849555805594 ], [ 30.715864098701129, -4.214845247069133 ], [ 30.715859806994661, -4.21394247935645 ], [ 30.718557365348328, -4.213929549704962 ], [ 30.718561660152883, -4.214832314638063 ], [ 30.720360029813211, -4.214823687832666 ], [ 30.720364327611819, -4.215726450886287 ], [ 30.721263512081961, -4.215722135000777 ] ] ], [ [ [ 30.730165008825004, -4.196721104156236 ], [ 30.731064161422012, -4.196716796389344 ], [ 30.731068452988733, -4.197619548804913 ], [ 30.731967605682858, -4.197615239075564 ], [ 30.731971899209434, -4.198517990535843 ], [ 30.732871052000657, -4.198513678843593 ], [ 30.73287534748755, -4.199416429348349 ], [ 30.73197619366751, -4.199420741970881 ], [ 30.731980489057083, -4.200323493380673 ], [ 30.731081333276506, -4.200327805900199 ], [ 30.731085628568319, -4.2012305582148 ], [ 30.730186470827192, -4.201234870630869 ], [ 30.730190766020804, -4.202137623850057 ], [ 30.727493284123423, -4.202150557685291 ], [ 30.727497577158921, -4.203053313667412 ], [ 30.723900917485555, -4.203070548022832 ], [ 30.723905207331587, -4.203973307694177 ], [ 30.722106869856976, -4.203981920523774 ], [ 30.722098295213918, -4.202176397444036 ], [ 30.721199127142647, -4.202180700452245 ], [ 30.721169152359195, -4.195861362385109 ], [ 30.722068313228327, -4.19585706587015 ], [ 30.722064033803669, -4.194954304115884 ], [ 30.724761507752113, -4.194941411161752 ], [ 30.724757226173221, -4.194038652166415 ], [ 30.729252992351931, -4.194017147914362 ], [ 30.729261566717806, -4.195822656590484 ], [ 30.730160719217697, -4.195818350785607 ], [ 30.730165008825004, -4.196721104156236 ] ] ], [ [ [ 30.721134951191736, -4.188639260225014 ], [ 30.721139223086958, -4.189542023083135 ], [ 30.720240068480262, -4.189546312074266 ], [ 30.720244340277599, -4.190449075834589 ], [ 30.718446026225482, -4.190457652578853 ], [ 30.718441756481461, -4.189554886964471 ], [ 30.717542599089814, -4.189559172863534 ], [ 30.717538331300329, -4.188656406297304 ], [ 30.715740015786533, -4.188664973150604 ], [ 30.715727224141279, -4.185956667742908 ], [ 30.716626379283973, -4.18595238761023 ], [ 30.716622116231473, -4.185049620016972 ], [ 30.717521269420988, -4.185045339780942 ], [ 30.717517006270782, -4.184142573089017 ], [ 30.719315307815403, -4.184134011381792 ], [ 30.719319573016264, -4.185036776220127 ], [ 30.722017021446433, -4.185023923157102 ], [ 30.722034103843253, -4.188634971130788 ], [ 30.721134951191736, -4.188639260225014 ] ] ], [ [ [ 30.712126336374045, -4.185071005753145 ], [ 30.712117823304268, -4.183265461233349 ], [ 30.713016979079164, -4.183261187996019 ], [ 30.713012722909106, -4.182358416623802 ], [ 30.713911876732382, -4.182354143282869 ], [ 30.713916133927341, -4.183256913729521 ], [ 30.71481528784858, -4.183252638433863 ], [ 30.714823807069806, -4.185058177400252 ], [ 30.712126336374045, -4.185071005753145 ] ] ], [ [ [ 30.730062315203732, -4.175055016311053 ], [ 30.73007085252447, -4.176860524184646 ], [ 30.729171721564377, -4.176864810468256 ], [ 30.729141864390698, -4.170545525964691 ], [ 30.730940111063866, -4.170536965385301 ], [ 30.730931584732545, -4.16873145902008 ], [ 30.731830704629449, -4.168727179051455 ], [ 30.731843498588123, -4.171435435771701 ], [ 30.73094437562618, -4.171439718530306 ], [ 30.730961443186636, -4.175050730859502 ], [ 30.730062315203732, -4.175055016311053 ] ] ], [ [ [ 30.732717034955225, -4.166014643902153 ], [ 30.732721296903627, -4.16691739531227 ], [ 30.731822179980274, -4.166921674445966 ], [ 30.731817919052656, -4.166018922105639 ], [ 30.732717034955225, -4.166014643902153 ] ] ], [ [ [ 30.780844001559284, -1.587572098308727 ], [ 30.780840718615785, -1.585766614164528 ], [ 30.784428898856028, -1.585760007240927 ], [ 30.784433829321532, -1.588468222153739 ], [ 30.78174269205887, -1.588473186398387 ], [ 30.781741048796935, -1.587570445281123 ], [ 30.780844001559284, -1.587572098308727 ] ] ], [ [ [ 30.622586480904456, -1.363936456880082 ], [ 30.622582429017555, -1.361227737926906 ], [ 30.623479547061702, -1.361226379769388 ], [ 30.623480897127315, -1.362129285194049 ], [ 30.624378014607892, -1.362127925800608 ], [ 30.624380718092851, -1.363933734822699 ], [ 30.622586480904456, -1.363936456880082 ] ] ] ] } }
]
}
