{
"type": "FeatureCollection",
"name": "flood_extent_2025-06",
"crs": { "type": "name", "properties": { "name": "urn:ogc:def:crs:OGC:1.3:CRS84" } },
"features": [
{ "type": "Feature", "properties": { "month": "2025-06" }, "geometry": { "type": "Polygon", "coordinates": [ [ [ 30.398146839382008, 1.26654802035942 ], [ 30.398145662083241, 1.265644894884731 ], [ 30.397248360208085, 1.265646079246252 ], [ 30.397244834281487, 1.262936700241599 ], [ 30.398142135229723, 1.262935518416239 ], [ 30.398140961292796, 1.262032392911952 ], [ 30.399038261092052, 1.262031211621557 ], [ 30.399034743399749, 1.259321837601222 ], [ 30.398137444524764, 1.259323016354795 ], [ 30.3981339353208, 1.256613639731306 ], [ 30.401723122086747, 1.256608933009757 ], [ 30.40172429220976, 1.257512055174527 ], [ 30.403518881160025, 1.257509698266036 ], [ 30.403520052739211, 1.258412818730234 ], [ 30.40531463893721, 1.258410458890431 ], [ 30.405316985851893, 1.260216696408515 ], [ 30.406214278303167, 1.260215514329561 ], [ 30.406215453331914, 1.26111863223015 ], [ 30.405318160572563, 1.261119815156489 ], [ 30.405321689787918, 1.263829171356079 ], [ 30.40442439526079, 1.263830356513719 ], [ 30.404426751664012, 1.265636595637446 ], [ 30.403529455676729, 1.265637782178117 ], [ 30.403530634831952, 1.266540902575809 ], [ 30.398146839382008, 1.26654802035942 ] ] ] } }
]
}
