{
"type": "FeatureCollection",
"name": "flood_extent_2025-08",
"crs": { "type": "name", "properties": { "name": "urn:ogc:def:crs:OGC:1.3:CRS84" } },
"features": [
{ "type": "Feature", "properties": { "month": "2025-08" }, "geometry": { "type": "Polygon", "coordinates": [ [ [ 30.792256279598213, -1.909826464155122 ], [ 30.792258262039287, -1.910729191129899 ], [ 30.793155450861381, -1.910727195745896 ], [ 30.793153467954035, -1.909824469714512 ], [ 30.792256279598213, -1.909826464155122 ] ] ] } }
]
}
