{
"type": "FeatureCollection",
"name": "flood_extent_2026-04",
"crs": { "type": "name", "properties": { "name": "urn:ogc:def:crs:OGC:1.3:CRS84" } },
"features": [
{ "type": "Feature", "properties": { "month": "2026-04" }, "geometry": { "type": "MultiPolygon", "coordinates": [ [ [ [ 29.945161824565449, -2.490473875309015 ], [ 29.946060146810538, -2.490471855086736 ], [ 29.946064166124586, -2.492278876015114 ], [ 29.945165842658241, -2.492280897704989 ], [ 29.945167852800942, -2.493184408881903 ], [ 29.941574549185166, -2.493192492430501 ], [ 29.941568528278651, -2.490481950058721 ], [ 29.943365177882896, -2.490477913911755 ], [ 29.943363171153404, -2.489574401225781 ], [ 29.945159816615359, -2.489570364089965 ], [ 29.945161824565449, -2.490473875309015 ] ] ], [ [ [ 30.718982572337062, -1.608269199345701 ], [ 30.718085451280984, -1.60827084616499 ], [ 30.71808381548901, -1.607368039038493 ], [ 30.718980936152619, -1.607366393144116 ], [ 30.718982572337062, -1.608269199345701 ] ] ], [ [ [ 30.785323971284956, -1.584675069676705 ], [ 30.7862210126052, -1.584673417712657 ], [ 30.786224297947516, -1.586478890588176 ], [ 30.787121339105163, -1.586477236351469 ], [ 30.787122983568214, -1.587379971833066 ], [ 30.786225942023322, -1.587381627011528 ], [ 30.786229232984223, -1.589187099829386 ], [ 30.784435145535042, -1.589190412782542 ], [ 30.784433500361754, -1.588287674495575 ], [ 30.782639409943979, -1.588290984005708 ], [ 30.782637766481638, -1.587388243827168 ], [ 30.780843673096616, -1.587391549896036 ], [ 30.780837111698123, -1.583780581561566 ], [ 30.785322330405023, -1.583772332283018 ], [ 30.785323971284956, -1.584675069676705 ] ] ], [ [ [ 30.679093360165467, -1.35734955439901 ], [ 30.679990419934601, -1.357348179014632 ], [ 30.679993155217044, -1.359153875478824 ], [ 30.678199033442855, -1.359156629574365 ], [ 30.678197666009989, -1.358253779516214 ], [ 30.677300604090203, -1.358255155148381 ], [ 30.677299237898279, -1.357352304167355 ], [ 30.678196299486618, -1.357350929449918 ], [ 30.678194933872739, -1.356448079375481 ], [ 30.679091994220364, -1.356446705239524 ], [ 30.679093360165467, -1.35734955439901 ] ] ] ] } }
]
}
