{
"type": "FeatureCollection",
"name": "flood_extent_2026-05",
"crs": { "type": "name", "properties": { "name": "urn:ogc:def:crs:OGC:1.3:CRS84" } },
"features": [
{ "type": "Feature", "properties": { "month": "2026-05" }, "geometry": { "type": "Polygon", "coordinates": [ [ [ 30.246629748093927, 0.248941059319541 ], [ 30.246629307424559, 0.24713452068904 ], [ 30.245732076076681, 0.24713474166836 ], [ 30.245731638737329, 0.245328201416781 ], [ 30.244834406707636, 0.245328420720365 ], [ 30.244834189301098, 0.244425149784986 ], [ 30.2439369565293, 0.24442536822096 ], [ 30.243936739984367, 0.243522096476931 ], [ 30.24303950647046, 0.24352231404574 ], [ 30.243039290786687, 0.242619041493288 ], [ 30.242142056530682, 0.242619258195377 ], [ 30.242141202046284, 0.239006164744431 ], [ 30.243038436066829, 0.239005951269513 ], [ 30.243038224390677, 0.238102678710103 ], [ 30.243935457551391, 0.238102465983383 ], [ 30.243935246618666, 0.237199194229612 ], [ 30.244832478919545, 0.237198982251535 ], [ 30.244832268730693, 0.236295711303629 ], [ 30.245729500171741, 0.236295500074639 ], [ 30.245729290727198, 0.235392229932828 ], [ 30.248420980063397, 0.235391598320676 ], [ 30.248421189680883, 0.236294866038778 ], [ 30.249318417911866, 0.236294654577194 ], [ 30.249318628390064, 0.237197921485581 ], [ 30.250215855875851, 0.237197709157279 ], [ 30.250216920605549, 0.241714039635687 ], [ 30.249319692827108, 0.241714256006843 ], [ 30.249320996652855, 0.247133857386182 ], [ 30.248423767712868, 0.24713407854795 ], [ 30.248424208624755, 0.248940613946387 ], [ 30.246629748093927, 0.248941059319541 ] ] ] } }
]
}
