{
"type": "FeatureCollection",
"name": "flood_extent_2025-05",
"crs": { "type": "name", "properties": { "name": "urn:ogc:def:crs:OGC:1.3:CRS84" } },
"features": [
{ "type": "Feature", "properties": { "month": "2025-05" }, "geometry": { "type": "MultiPolygon", "coordinates": [ [ [ [ 29.458701410722846, -0.630555451101682 ], [ 29.457803514548925, -0.630555878157335 ], [ 29.457803090707461, -0.629651985780817 ], [ 29.458700986726924, -0.62965155933739 ], [ 29.458701410722846, -0.630555451101682 ] ] ], [ [ [ 29.447024104524893, -0.620618093736176 ], [ 29.447024520458147, -0.621521993476069 ], [ 29.447922422380291, -0.621521574383158 ], [ 29.447923256368355, -0.623329372633688 ], [ 29.44702535414104, -0.623329792945693 ], [ 29.447026190245797, -0.625137592401737 ], [ 29.445230383362897, -0.625138435001121 ], [ 29.445232482682425, -0.629657939673694 ], [ 29.441640858582069, -0.629659635192076 ], [ 29.441638344902323, -0.624236214969707 ], [ 29.442536250912017, -0.624235794972448 ], [ 29.442535833926947, -0.623331892198338 ], [ 29.445229547870248, -0.623330633108227 ], [ 29.445227469726479, -0.618811128316675 ], [ 29.446125372403245, -0.618810711357821 ], [ 29.446126202149529, -0.620618512066386 ], [ 29.447024104524893, -0.620618093736176 ] ] ], [ [ [ 29.458693871873212, -0.614285398823352 ], [ 29.458694285527269, -0.615189290645318 ], [ 29.459592178497182, -0.615188873845657 ], [ 29.459592592910493, -0.616092765051824 ], [ 29.46049048542276, -0.616092347487685 ], [ 29.460490900595765, -0.616996238077826 ], [ 29.461388792650382, -0.616995819748764 ], [ 29.46138962512569, -0.618803599693167 ], [ 29.460491732768148, -0.618804019248013 ], [ 29.460492567375667, -0.620611800404706 ], [ 29.459594674105514, -0.620612221032188 ], [ 29.459596770514676, -0.62513167692798 ], [ 29.458698875872532, -0.625132100464548 ], [ 29.458700140560122, -0.627843775798515 ], [ 29.456006451602338, -0.627845050990646 ], [ 29.456006029892844, -0.626941157380068 ], [ 29.455108132511718, -0.626941581522688 ], [ 29.455106871489392, -0.624229898835809 ], [ 29.454208973960863, -0.624230320989721 ], [ 29.454208136622213, -0.622422531292123 ], [ 29.44971864140344, -0.622424633644401 ], [ 29.449718224407309, -0.621520735737203 ], [ 29.448820323696758, -0.621521155136869 ], [ 29.448819907459004, -0.620617256616293 ], [ 29.449717808017308, -0.620616837826619 ], [ 29.449715735159216, -0.616097348223087 ], [ 29.450613634353484, -0.616096932331335 ], [ 29.45061322144932, -0.615193035010755 ], [ 29.451511119886323, -0.615192619577403 ], [ 29.45151029559587, -0.613384826147068 ], [ 29.455999777172092, -0.613382752814167 ], [ 29.456000189766392, -0.614286646475477 ], [ 29.458693871873212, -0.614285398823352 ] ] ], [ [ [ 29.88765625198123, -0.134271217138611 ], [ 29.887656465604806, -0.136078366687367 ], [ 29.886758936781884, -0.136078474920737 ], [ 29.88675904463123, -0.136982050412654 ], [ 29.884066453780481, -0.136982377066286 ], [ 29.884066027062719, -0.133368066475191 ], [ 29.886758617516431, -0.133367748440418 ], [ 29.886758723224482, -0.134271323934614 ], [ 29.88765625198123, -0.134271217138611 ] ] ], [ [ [ 30.175356446425806, 1.057260051320855 ], [ 30.175353693930575, 1.054550061689933 ], [ 30.172661380328478, 1.054552827534387 ], [ 30.172664130499481, 1.057262824274543 ], [ 30.173561569926587, 1.057261900216924 ], [ 30.173562488478346, 1.05816523166181 ], [ 30.174459927379218, 1.058164306553998 ], [ 30.174459008568768, 1.057260975899028 ], [ 30.175356446425806, 1.057260051320855 ] ] ], [ [ [ 28.785730400113735, 1.625365146141679 ], [ 28.785729605694794, 1.624460864411209 ], [ 28.787526793015648, 1.624459265158983 ], [ 28.78752599824136, 1.62355498431071 ], [ 28.786627405201408, 1.623555783692185 ], [ 28.786626611269043, 1.62265150238994 ], [ 28.787525203910203, 1.622650703453929 ], [ 28.787523616577293, 1.620842141714869 ], [ 28.784827839716058, 1.620844534647834 ], [ 28.784829424658202, 1.622653099058337 ], [ 28.783930830688981, 1.622653896790722 ], [ 28.783931623424952, 1.62355817942802 ], [ 28.783033028614685, 1.623558977203764 ], [ 28.783035408278351, 1.62627182639832 ], [ 28.786629789655969, 1.626268627547865 ], [ 28.786628994394864, 1.625364346271152 ], [ 28.785730400113735, 1.625365146141679 ] ] ], [ [ [ 28.860374716429664, 1.692211422397662 ], [ 28.858577541211908, 1.692213156234402 ], [ 28.858576680362397, 1.691308911938529 ], [ 28.854982326061716, 1.691312372740487 ], [ 28.854984905002446, 1.694025111155378 ], [ 28.85588349551556, 1.694024245194595 ], [ 28.855885217941676, 1.695832736501676 ], [ 28.856783808827473, 1.695831869196652 ], [ 28.856785533927784, 1.697640359542629 ], [ 28.857684125186925, 1.69763949089247 ], [ 28.857684988844781, 1.698543735589127 ], [ 28.858583580060529, 1.698542866056107 ], [ 28.85858444459636, 1.699447110280664 ], [ 28.859483035768712, 1.699446239864336 ], [ 28.859483901182958, 1.700350483616564 ], [ 28.860382492311921, 1.700349612316481 ], [ 28.860383358605034, 1.701253855596151 ], [ 28.861281949690589, 1.701252983411866 ], [ 28.861282816863007, 1.702157226218748 ], [ 28.862181407905169, 1.702156353149816 ], [ 28.862182275957341, 1.70306059548368 ], [ 28.863080866956093, 1.703059721529654 ], [ 28.863081735888468, 1.703963963390273 ], [ 28.863980326843816, 1.703963088550704 ], [ 28.863981196656827, 1.704867329937847 ], [ 28.864879787568768, 1.70486645421229 ], [ 28.864880658262869, 1.705770695125729 ], [ 28.86847501896062, 1.705767186147592 ], [ 28.868476765090161, 1.707575664225167 ], [ 28.869375354945586, 1.707574784994685 ], [ 28.86937622912485, 1.708479023554143 ], [ 28.868477638849807, 1.708479903250482 ], [ 28.868480262908275, 1.711192620272481 ], [ 28.86937885444349, 1.711191739178566 ], [ 28.869379730476656, 1.712095977702042 ], [ 28.870278321968897, 1.712095095719011 ], [ 28.870280076267345, 1.713903571806769 ], [ 28.871178668137549, 1.713902688467868 ], [ 28.871179546403503, 1.714806926031916 ], [ 28.874773910927473, 1.714803386571831 ], [ 28.874773030976865, 1.713899150875251 ], [ 28.875671620525207, 1.713898265417849 ], [ 28.875668103688486, 1.710281324411083 ], [ 28.874769515822567, 1.710282207998786 ], [ 28.874767761034306, 1.708473736506532 ], [ 28.873869173543458, 1.70847461873703 ], [ 28.873868297266149, 1.707570382510215 ], [ 28.87296970973032, 1.70757126385138 ], [ 28.872968834336987, 1.706667027148604 ], [ 28.873867421453426, 1.706666146274414 ], [ 28.87386654610529, 1.705761910029633 ], [ 28.874765132337984, 1.705761029200732 ], [ 28.874763382197813, 1.703952557618642 ], [ 28.875661967128046, 1.703951677302899 ], [ 28.875661092336678, 1.703047441965822 ], [ 28.87655967638339, 1.703046561696488 ], [ 28.876557927359407, 1.701238091930738 ], [ 28.877456510104555, 1.701237212176128 ], [ 28.877455635872614, 1.700332977747688 ], [ 28.878354217734472, 1.700332098040604 ], [ 28.878353343550398, 1.699427864071305 ], [ 28.879251924528965, 1.699426984412198 ], [ 28.879251050393204, 1.698522750902267 ], [ 28.880149630488486, 1.698521871291583 ], [ 28.880147882780616, 1.696713405181979 ], [ 28.881046461575682, 1.696712526088926 ], [ 28.881045588004234, 1.695808293489484 ], [ 28.880147009625873, 1.695809172113777 ], [ 28.880146136937263, 1.694904939036648 ], [ 28.87924755850926, 1.694905816773188 ], [ 28.879246686703045, 1.694001583218602 ], [ 28.878348108225399, 1.694002460067834 ], [ 28.878347237301135, 1.69309822603602 ], [ 28.877448658773847, 1.693099101998391 ], [ 28.877447788731079, 1.692194867489579 ], [ 28.876549210154156, 1.692195742565537 ], [ 28.876548340992443, 1.691291507579954 ], [ 28.874751183274309, 1.691293255541829 ], [ 28.874750315408594, 1.690389019612292 ], [ 28.871155996058143, 1.690392508651333 ], [ 28.871156862262339, 1.691296746448295 ], [ 28.866663950561275, 1.691301100673878 ], [ 28.866664815151324, 1.692205340791192 ], [ 28.863969061328611, 1.692207949704025 ], [ 28.863969925133944, 1.693112191207304 ], [ 28.863071339185996, 1.693113060472739 ], [ 28.86307220303739, 1.694017302431622 ], [ 28.862173616211482, 1.694018171742774 ], [ 28.86217275277615, 1.693113929319606 ], [ 28.860375578571634, 1.693115665757634 ], [ 28.860374716429664, 1.692211422397662 ] ], [ [ 28.862174480108497, 1.694922414157034 ], [ 28.86127589240462, 1.694923283513456 ], [ 28.861275028923892, 1.694019040635134 ], [ 28.862173616211482, 1.694018171742774 ], [ 28.862174480108497, 1.694922414157034 ] ], [ [ 28.874772151491065, 1.712994915169652 ], [ 28.873873561898851, 1.712995799736154 ], [ 28.87387268329859, 1.712091563554338 ], [ 28.874771272470088, 1.712090679455038 ], [ 28.874772151491065, 1.712994915169652 ] ], [ [ 28.87296446433573, 1.702145843500112 ], [ 28.872065878848517, 1.702146721618638 ], [ 28.872065006659401, 1.701242484395302 ], [ 28.872963591728563, 1.701241606743525 ], [ 28.87296446433573, 1.702145843500112 ] ], [ [ 28.870266964239573, 1.70034000027203 ], [ 28.869368378196505, 1.700340876196016 ], [ 28.869367508188482, 1.699436637555878 ], [ 28.870266093813939, 1.69943576209797 ], [ 28.870266964239573, 1.70034000027203 ] ], [ [ 28.862178806518781, 1.69944362609453 ], [ 28.862177940313359, 1.698539383724887 ], [ 28.863076529222905, 1.698538512092302 ], [ 28.863077395845725, 1.699442753997657 ], [ 28.862178806518781, 1.69944362609453 ] ], [ [ 28.861279350942116, 1.69854025493756 ], [ 28.861278485615557, 1.697636012094921 ], [ 28.862177074569619, 1.69763514134631 ], [ 28.862177940313359, 1.698539383724887 ], [ 28.861279350942116, 1.69854025493756 ] ], [ [ 28.874758142932585, 1.698527142657313 ], [ 28.873859560045176, 1.69852801974864 ], [ 28.873858688878265, 1.697623783423244 ], [ 28.874757271348518, 1.697622906799113 ], [ 28.874758142932585, 1.698527142657313 ] ] ] ] } }
]
}
