{
"type": "FeatureCollection",
"name": "flood_extent_2025-12",
"crs": { "type": "name", "properties": { "name": "urn:ogc:def:crs:OGC:1.3:CRS84" } },
"features": [
{ "type": "Feature", "properties": { "month": "2025-12" }, "geometry": { "type": "MultiPolygon", "coordinates": [ [ [ [ 30.248424608191204, 0.25056649580006 ], [ 30.248424385888708, 0.249663228104153 ], [ 30.249321614998703, 0.249663004679006 ], [ 30.249321393438137, 0.248759737790005 ], [ 30.250218621684148, 0.248759515111992 ], [ 30.250218400865958, 0.247856249030125 ], [ 30.251115628247984, 0.247856027099692 ], [ 30.2511149704324, 0.245146231271892 ], [ 30.25021774323114, 0.245146450775944 ], [ 30.250217308824379, 0.243339918599395 ], [ 30.249320080939231, 0.243340136425978 ], [ 30.249319865000157, 0.242436869527019 ], [ 30.247525406939609, 0.242437303384066 ], [ 30.247525191921905, 0.24153403486723 ], [ 30.245730730769154, 0.241534466870051 ], [ 30.245730516671941, 0.240631196736233 ], [ 30.243038819103752, 0.240631841872966 ], [ 30.243039033024171, 0.241535114428496 ], [ 30.242141798839171, 0.241535330162433 ], [ 30.242142445231458, 0.244245150241005 ], [ 30.243039679594578, 0.244244932086689 ], [ 30.243039896721097, 0.245148204636604 ], [ 30.243937130342506, 0.245147985615167 ], [ 30.243937786711978, 0.247857800835346 ], [ 30.244835019712408, 0.247857579331868 ], [ 30.244835461422404, 0.249664121190357 ], [ 30.245732693742479, 0.249663898010964 ], [ 30.245732915861566, 0.250567168130586 ], [ 30.248424608191204, 0.25056649580006 ] ] ], [ [ [ 30.270567766008025, 1.137549337213539 ], [ 30.270565731492994, 1.135742848627314 ], [ 30.27146310738442, 1.135741825392321 ], [ 30.271462091062681, 1.134838581903314 ], [ 30.27056471544882, 1.134839604324333 ], [ 30.270563700213547, 1.133936360014782 ], [ 30.269666324068137, 1.133937381342777 ], [ 30.269665309918881, 1.13303413621291 ], [ 30.267870555756531, 1.133036176404911 ], [ 30.267871569351524, 1.13393942316161 ], [ 30.266974190780758, 1.133940443652443 ], [ 30.266977235582406, 1.136650186322378 ], [ 30.267874614985892, 1.136649163392295 ], [ 30.267875631813816, 1.137552410122703 ], [ 30.270567766008025, 1.137549337213539 ] ] ] ] } }
]
}
